[{"OBJECT_NAME":"STARLINK-32176","OBJECT_ID":"2024-136M","EPOCH":"2026-03-09T06:59:42.131040","MEAN_MOTION":15.30192295,"ECCENTRICITY":0.00012983,"INCLINATION":53.1602,"RA_OF_ASC_NODE":77.509,"ARG_OF_PERICENTER":84.4689,"MEAN_ANOMALY":275.646,"EPHEMERIS_TYPE":0,"CLASSIFICATION_TYPE":"U","NORAD_CAT_ID":60340,"ELEMENT_SET_NO":999,"REV_AT_EPOCH":9077,"BSTAR":5.866709e-6,"MEAN_MOTION_DOT":-1.85e-6,"MEAN_MOTION_DDOT":0},{"OBJECT_NAME":"COSMOS 1862","OBJECT_ID":"1987-055A","EPOCH":"2026-03-09T22:37:02.390592","MEAN_MOTION":15.30492139,"ECCENTRICITY":0.00097484,"INCLINATION":82.4856,"RA_OF_ASC_NODE":47.1862,"ARG_OF_PERICENTER":26.6325,"MEAN_ANOMALY":333.5414,"EPHEMERIS_TYPE":0,"CLASSIFICATION_TYPE":"U","NORAD_CAT_ID":18152,"ELEMENT_SET_NO":999,"REV_AT_EPOCH":8987,"BSTAR":0.00034125048,"MEAN_MOTION_DOT":0.00010107,"MEAN_MOTION_DDOT":0}]
